{
  "type": "FeatureCollection",
  "generator": "overpass-turbo",
  "copyright": "The data included in this document is from www.openstreetmap.org. The data is made available under ODbL.",
  "timestamp": "2026-04-12T13:25:00Z",
  "features": [
    {
      "type": "Feature",
      "properties": {
        "@id": "relation/18323642",
        "admin_level": "10",
        "boundary": "administrative",
        "name": "Pinagbuhatan",
        "postal_code": "1602",
        "ref": "137403015",
        "type": "boundary"
      },
      "geometry": {
        "type": "Polygon",
        "coordinates": [
          [
            [
              121.1010776,
              14.55356
            ],
            [
              121.1008848,
              14.5536226
            ],
            [
              121.1005335,
              14.5536493
            ],
            [
              121.0997503,
              14.5533655
            ],
            [
              121.099351,
              14.553279
            ],
            [
              121.0992397,
              14.5533099
            ],
            [
              121.0991344,
              14.5534167
            ],
            [
              121.0988038,
              14.5538634
            ],
            [
              121.0982747,
              14.5545464
            ],
            [
              121.0980692,
              14.5547713
            ],
            [
              121.098221,
              14.5549749
            ],
            [
              121.0983068,
              14.5553155
            ],
            [
              121.0982639,
              14.555573
            ],
            [
              121.0978863,
              14.5567859
            ],
            [
              121.097912,
              14.5575834
            ],
            [
              121.0981972,
              14.5583662
            ],
            [
              121.0981695,
              14.558572
            ],
            [
              121.09641,
              14.5598597
            ],
            [
              121.0963127,
              14.5600221
            ],
            [
              121.0962866,
              14.5602645
            ],
            [
              121.0963544,
              14.560421
            ],
            [
              121.0971567,
              14.5617455
            ],
            [
              121.0975687,
              14.5619781
            ],
            [
              121.0979549,
              14.5622522
            ],
            [
              121.0980236,
              14.5624516
            ],
            [
              121.0979435,
              14.5623944
            ],
            [
              121.0978904,
              14.5623795
            ],
            [
              121.0976666,
              14.56231
            ],
            [
              121.0972403,
              14.5621198
            ],
            [
              121.0943797,
              14.5612715
            ],
            [
              121.0942104,
              14.5614446
            ],
            [
              121.0939036,
              14.5612624
            ],
            [
              121.0934718,
              14.5620114
            ],
            [
              121.0935268,
              14.5621009
            ],
            [
              121.0934239,
              14.5622913
            ],
            [
              121.0922512,
              14.5617924
            ],
            [
              121.092494,
              14.5611104
            ],
            [
              121.0912033,
              14.5607255
            ],
            [
              121.0910698,
              14.561078
            ],
            [
              121.0909049,
              14.5611534
            ],
            [
              121.0908257,
              14.5614974
            ],
            [
              121.0908633,
              14.5617836
            ],
            [
              121.0906849,
              14.5618284
            ],
            [
              121.0903607,
              14.5619202
            ],
            [
              121.0900448,
              14.5619673
            ],
            [
              121.0899981,
              14.5619752
            ],
            [
              121.0904284,
              14.5624968
            ],
            [
              121.0903655,
              14.5624954
            ],
            [
              121.0903343,
              14.5624972
            ],
            [
              121.0902854,
              14.5625091
            ],
            [
              121.0899641,
              14.5625916
            ],
            [
              121.0898427,
              14.5626233
            ],
            [
              121.0897135,
              14.5626303
            ],
            [
              121.089604,
              14.5626617
            ],
            [
              121.0895262,
              14.562676
            ],
            [
              121.0894431,
              14.562685
            ],
            [
              121.0891392,
              14.5626939
            ],
            [
              121.0889554,
              14.5626917
            ],
            [
              121.0889345,
              14.5626902
            ],
            [
              121.0888579,
              14.5626845
            ],
            [
              121.0888559,
              14.5626287
            ],
            [
              121.088856,
              14.5626013
            ],
            [
              121.0888495,
              14.5621731
            ],
            [
              121.0888362,
              14.5617929
            ],
            [
              121.0888329,
              14.5617375
            ],
            [
              121.0888225,
              14.5617095
            ],
            [
              121.088841,
              14.5617024
            ],
            [
              121.0888249,
              14.5615791
            ],
            [
              121.0887026,
              14.5615721
            ],
            [
              121.0881679,
              14.561579
            ],
            [
              121.0881671,
              14.5615006
            ],
            [
              121.088221,
              14.5615001
            ],
            [
              121.0882205,
              14.5614459
            ],
            [
              121.0881793,
              14.5614458
            ],
            [
              121.0881613,
              14.5609009
            ],
            [
              121.0881748,
              14.5608964
            ],
            [
              121.0881607,
              14.5608295
            ],
            [
              121.0881383,
              14.5600778
            ],
            [
              121.0882804,
              14.5599863
            ],
            [
              121.088277,
              14.5599553
            ],
            [
              121.0882878,
              14.5598774
            ],
            [
              121.0882918,
              14.5597982
            ],
            [
              121.0882837,
              14.5596957
            ],
            [
              121.088255,
              14.5596199
            ],
            [
              121.0882345,
              14.5595656
            ],
            [
              121.0874841,
              14.5595164
            ],
            [
              121.0872989,
              14.5590642
            ],
            [
              121.0870446,
              14.558429
            ],
            [
              121.0858932,
              14.5588574
            ],
            [
              121.0857998,
              14.5588906
            ],
            [
              121.085303,
              14.5590675
            ],
            [
              121.0852477,
              14.5590873
            ],
            [
              121.0852037,
              14.5589896
            ],
            [
              121.0850849,
              14.5586831
            ],
            [
              121.085049,
              14.5585905
            ],
            [
              121.0849677,
              14.5583807
            ],
            [
              121.0849295,
              14.5582821
            ],
            [
              121.0849237,
              14.5582671
            ],
            [
              121.0848592,
              14.5580855
            ],
            [
              121.0848192,
              14.5579845
            ],
            [
              121.0847432,
              14.557782
            ],
            [
              121.0846823,
              14.5576229
            ],
            [
              121.0846441,
              14.557523
            ],
            [
              121.0847969,
              14.5574069
            ],
            [
              121.0850078,
              14.5570073
            ],
            [
              121.085451,
              14.5565032
            ],
            [
              121.0857427,
              14.5561632
            ],
            [
              121.0861157,
              14.5557459
            ],
            [
              121.0863966,
              14.5553535
            ],
            [
              121.0865611,
              14.555128
            ],
            [
              121.0868144,
              14.5548584
            ],
            [
              121.0869387,
              14.5547438
            ],
            [
              121.0873811,
              14.55441
            ],
            [
              121.0875451,
              14.5543074
            ],
            [
              121.0876742,
              14.5542867
            ],
            [
              121.0877791,
              14.5542421
            ],
            [
              121.0879064,
              14.5541533
            ],
            [
              121.0880571,
              14.5539686
            ],
            [
              121.0881218,
              14.5537662
            ],
            [
              121.0881748,
              14.553643
            ],
            [
              121.0882113,
              14.5535685
            ],
            [
              121.0882187,
              14.5535234
            ],
            [
              121.0882185,
              14.5534276
            ],
            [
              121.0881005,
              14.552926
            ],
            [
              121.0883675,
              14.5527635
            ],
            [
              121.0890027,
              14.5521903
            ],
            [
              121.0897666,
              14.5520906
            ],
            [
              121.0907708,
              14.552265
            ],
            [
              121.0916634,
              14.5526804
            ],
            [
              121.0923072,
              14.552805
            ],
            [
              121.0928393,
              14.5525475
            ],
            [
              121.0929989,
              14.5521324
            ],
            [
              121.093114,
              14.551833
            ],
            [
              121.0932841,
              14.5509844
            ],
            [
              121.0940409,
              14.548593
            ],
            [
              121.0942832,
              14.5476781
            ],
            [
              121.0943234,
              14.546977
            ],
            [
              121.0943623,
              14.5463956
            ],
            [
              121.094551,
              14.5453353
            ],
            [
              121.0945978,
              14.5451806
            ],
            [
              121.094676,
              14.5450495
            ],
            [
              121.0947346,
              14.5449541
            ],
            [
              121.0948958,
              14.5448014
            ],
            [
              121.0951646,
              14.5446097
            ],
            [
              121.0955441,
              14.5444017
            ],
            [
              121.0958944,
              14.5441587
            ],
            [
              121.0961738,
              14.543857
            ],
            [
              121.0962908,
              14.5436138
            ],
            [
              121.0963921,
              14.5432131
            ],
            [
              121.0964133,
              14.5428665
            ],
            [
              121.0963219,
              14.542457
            ],
            [
              121.0962033,
              14.5419892
            ],
            [
              121.0961669,
              14.5416482
            ],
            [
              121.0961541,
              14.5413932
            ],
            [
              121.0961428,
              14.5411748
            ],
            [
              121.0961877,
              14.5409431
            ],
            [
              121.0962844,
              14.540749
            ],
            [
              121.0963889,
              14.54061
            ],
            [
              121.0965653,
              14.5404485
            ],
            [
              121.096835,
              14.5402595
            ],
            [
              121.0972033,
              14.539991
            ],
            [
              121.0974884,
              14.539692
            ],
            [
              121.097774,
              14.5393449
            ],
            [
              121.0979551,
              14.5390663
            ],
            [
              121.0980772,
              14.5387781
            ],
            [
              121.0982797,
              14.5382459
            ],
            [
              121.0985228,
              14.5378199
            ],
            [
              121.0986764,
              14.5376144
            ],
            [
              121.0990146,
              14.5372753
            ],
            [
              121.0992793,
              14.5370879
            ],
            [
              121.0994225,
              14.5369866
            ],
            [
              121.0999466,
              14.5367551
            ],
            [
              121.1005837,
              14.5363713
            ],
            [
              121.1010718,
              14.5362181
            ],
            [
              121.1017269,
              14.5357651
            ],
            [
              121.1019847,
              14.5355934
            ],
            [
              121.1023432,
              14.535255
            ],
            [
              121.1025753,
              14.5350627
            ],
            [
              121.1027159,
              14.5349437
            ],
            [
              121.1033661,
              14.5344058
            ],
            [
              121.1040832,
              14.5338787
            ],
            [
              121.1045698,
              14.5357375
            ],
            [
              121.104759,
              14.5366058
            ],
            [
              121.1054144,
              14.539114
            ],
            [
              121.1055687,
              14.5394983
            ],
            [
              121.1055981,
              14.5396401
            ],
            [
              121.1055929,
              14.5397947
            ],
            [
              121.105654,
              14.5400121
            ],
            [
              121.1056883,
              14.5401339
            ],
            [
              121.1057218,
              14.540234
            ],
            [
              121.105726,
              14.5403531
            ],
            [
              121.1058772,
              14.5404341
            ],
            [
              121.1059204,
              14.5405921
            ],
            [
              121.1060853,
              14.5411739
            ],
            [
              121.1062926,
              14.5419963
            ],
            [
              121.1063074,
              14.5420505
            ],
            [
              121.106168,
              14.5420793
            ],
            [
              121.1061299,
              14.5421032
            ],
            [
              121.1062023,
              14.5422746
            ],
            [
              121.1062498,
              14.5424227
            ],
            [
              121.1063078,
              14.542575
            ],
            [
              121.106337,
              14.542683
            ],
            [
              121.1065404,
              14.5435594
            ],
            [
              121.1071439,
              14.5459515
            ],
            [
              121.1073932,
              14.5459514
            ],
            [
              121.1076289,
              14.5459763
            ],
            [
              121.1079507,
              14.5459822
            ],
            [
              121.1084797,
              14.5459487
            ],
            [
              121.1088878,
              14.5459429
            ],
            [
              121.1090249,
              14.545934
            ],
            [
              121.1091806,
              14.545953
            ],
            [
              121.1094066,
              14.5459566
            ],
            [
              121.1094739,
              14.5459827
            ],
            [
              121.1095507,
              14.5461498
            ],
            [
              121.1095904,
              14.5462122
            ],
            [
              121.1096646,
              14.5464563
            ],
            [
              121.1097446,
              14.5465986
            ],
            [
              121.1092971,
              14.5469767
            ],
            [
              121.1086074,
              14.547851
            ],
            [
              121.1083096,
              14.5482285
            ],
            [
              121.1074107,
              14.5489209
            ],
            [
              121.106724,
              14.5495024
            ],
            [
              121.1063946,
              14.5498471
            ],
            [
              121.1060052,
              14.5501647
            ],
            [
              121.1057576,
              14.5503605
            ],
            [
              121.1056682,
              14.5504446
            ],
            [
              121.1055438,
              14.5505617
            ],
            [
              121.1045032,
              14.5511121
            ],
            [
              121.1036932,
              14.5515898
            ],
            [
              121.1028616,
              14.5521713
            ],
            [
              121.102133,
              14.5526161
            ],
            [
              121.1018453,
              14.5527736
            ],
            [
              121.1017059,
              14.5529085
            ],
            [
              121.1011906,
              14.5535188
            ],
            [
              121.1010776,
              14.55356
            ]
          ]
        ]
      },
      "id": "relation/18323642"
    },
    {
      "type": "Feature",
      "properties": {
        "@id": "node/8292990525",
        "@relations": [
          {
            "role": "label",
            "rel": 18323642,
            "reltags": {
              "admin_level": "10",
              "boundary": "administrative",
              "name": "Pinagbuhatan",
              "postal_code": "1602",
              "ref": "137403015",
              "type": "boundary"
            }
          }
        ]
      },
      "geometry": {
        "type": "Point",
        "coordinates": [
          121.0909923,
          14.5572974
        ]
      },
      "id": "node/8292990525"
    }
  ]
}