{
  "type": "FeatureCollection",
  "generator": "overpass-turbo",
  "copyright": "The data included in this document is from www.openstreetmap.org. The data is made available under ODbL.",
  "timestamp": "2026-04-12T13:29:02Z",
  "features": [
    {
      "type": "Feature",
      "properties": {
        "@id": "relation/8544674",
        "admin_level": "10",
        "boundary": "administrative",
        "name": "Santa Lucia",
        "postal_code": "1608",
        "ref": "137403030",
        "type": "boundary"
      },
      "geometry": {
        "type": "Polygon",
        "coordinates": [
          [
            [
              121.1018774,
              14.5756064
            ],
            [
              121.1021329,
              14.5758115
            ],
            [
              121.1033159,
              14.5765649
            ],
            [
              121.1034319,
              14.5766165
            ],
            [
              121.1035524,
              14.5766846
            ],
            [
              121.1036474,
              14.5767584
            ],
            [
              121.1037694,
              14.576827
            ],
            [
              121.1043113,
              14.5770221
            ],
            [
              121.1047423,
              14.5773189
            ],
            [
              121.105002,
              14.5775818
            ],
            [
              121.1052517,
              14.5777481
            ],
            [
              121.1055239,
              14.5777541
            ],
            [
              121.1057347,
              14.5777169
            ],
            [
              121.1065996,
              14.5787033
            ],
            [
              121.106978,
              14.5788315
            ],
            [
              121.1073624,
              14.5788909
            ],
            [
              121.1078088,
              14.5790032
            ],
            [
              121.1080687,
              14.5790904
            ],
            [
              121.1083613,
              14.5793694
            ],
            [
              121.1085915,
              14.5797079
            ],
            [
              121.1088241,
              14.5802508
            ],
            [
              121.1091205,
              14.581177
            ],
            [
              121.1089075,
              14.581592
            ],
            [
              121.1090439,
              14.5821234
            ],
            [
              121.1090908,
              14.582348
            ],
            [
              121.1090266,
              14.5826701
            ],
            [
              121.10869,
              14.5827926
            ],
            [
              121.1086584,
              14.5830907
            ],
            [
              121.1084409,
              14.5832983
            ],
            [
              121.1084005,
              14.5834695
            ],
            [
              121.1083754,
              14.5837412
            ],
            [
              121.1082934,
              14.5837956
            ],
            [
              121.1081808,
              14.5838964
            ],
            [
              121.1081791,
              14.5840089
            ],
            [
              121.1082694,
              14.5841728
            ],
            [
              121.1081989,
              14.5843947
            ],
            [
              121.1082507,
              14.5849228
            ],
            [
              121.1083954,
              14.585438
            ],
            [
              121.108251,
              14.5857296
            ],
            [
              121.1084205,
              14.586138
            ],
            [
              121.1085387,
              14.5867386
            ],
            [
              121.1084874,
              14.586805
            ],
            [
              121.1083576,
              14.5871357
            ],
            [
              121.1084009,
              14.587283
            ],
            [
              121.1085837,
              14.5876218
            ],
            [
              121.1086689,
              14.5877365
            ],
            [
              121.1082316,
              14.5878405
            ],
            [
              121.1057429,
              14.5884323
            ],
            [
              121.102503,
              14.5891518
            ],
            [
              121.1014339,
              14.5893195
            ],
            [
              121.0972961,
              14.5896809
            ],
            [
              121.0955581,
              14.5898475
            ],
            [
              121.0927353,
              14.5900874
            ],
            [
              121.0937359,
              14.5868148
            ],
            [
              121.09453,
              14.5848641
            ],
            [
              121.0953037,
              14.5831104
            ],
            [
              121.0972204,
              14.5804243
            ],
            [
              121.0979957,
              14.5793379
            ],
            [
              121.0999508,
              14.5766011
            ],
            [
              121.1009214,
              14.575239
            ],
            [
              121.1014994,
              14.5744278
            ],
            [
              121.101526,
              14.5753659
            ],
            [
              121.1018774,
              14.5756064
            ]
          ]
        ]
      },
      "id": "relation/8544674"
    },
    {
      "type": "Feature",
      "properties": {
        "@id": "node/255062743",
        "@relations": [
          {
            "role": "label",
            "rel": 8544674,
            "reltags": {
              "admin_level": "10",
              "boundary": "administrative",
              "name": "Santa Lucia",
              "postal_code": "1608",
              "ref": "137403030",
              "type": "boundary"
            }
          }
        ]
      },
      "geometry": {
        "type": "Point",
        "coordinates": [
          121.1013028,
          14.5842641
        ]
      },
      "id": "node/255062743"
    }
  ]
}