{"type":"FeatureCollection","features":[{"type":"Feature","properties":{"barangay":"Sta. Lucia","shaking_leve":"high","hazard_value":4},"geometry":{"type":"Polygon","coordinates":[[[121.09322220772594,14.589953504650765],[121.09360646773803,14.588566344136282],[121.09457605137857,14.585799676579413],[121.09569142865007,14.584081292149392],[121.09819312221782,14.580551082084568],[121.10055325167923,14.577242473074989],[121.10184897968168,14.5756117099058],[121.10344506990077,14.576630435275618],[121.1038039506825,14.576841622511338],[121.10431167589371,14.577020455426478],[121.10472634577047,14.577307630566992],[121.10498724717507,14.577574887799031],[121.10524466874676,14.577751942116436],[121.1057347437361,14.577722733961338],[121.10659488412733,14.578701691100946],[121.10692594398802,14.578824242817646],[121.10742309430412,14.578916067668686],[121.10806173335101,14.57908569116509],[121.10834768062278,14.579363090363557],[121.1084526545011,14.57951624813633],[121.1085943732449,14.57972608518196],[121.10882483818625,14.580250490019651],[121.10911666880236,14.581178155663679],[121.10890557258682,14.581589720415977],[121.10908693584656,14.582343529714677],[121.10902739198212,14.582667065473444],[121.10869240267778,14.582788624787],[121.10865860413077,14.583088729575167],[121.10843860141836,14.583296689419342],[121.10839185111098,14.583530330357505],[121.10837527052519,14.58341432996518],[121.10831623873554,14.583772383777031],[121.10817761180516,14.58389079302583],[121.10817790787905,14.58401038431738],[121.10826581479921,14.584172658546905],[121.10819470061557,14.584390808251896],[121.10824724975248,14.584918060260563],[121.10839178660768,14.585430728212046],[121.10824676493769,14.585731207908808],[121.1084200087617,14.586141274276542],[121.10853640046446,14.58673657475255],[121.10848657227785,14.586799008945007],[121.10842606151556,14.586952145256305],[121.10835387523292,14.587135310934542],[121.10839796781045,14.587282819865777],[121.10860630741928,14.58766101218167],[121.10765192111069,14.587886638769518],[121.10689730373417,14.588068750696124],[121.10613941482694,14.588253428357746],[121.10529187716509,14.588445716317068],[121.10430039701771,14.588691636139842],[121.10422043506247,14.588729294730655],[121.10275964196967,14.58906200557351],[121.10137904593097,14.589293137410593],[121.10008558807954,14.589413494464068],[121.09822585384842,14.589555962561946],[121.09664840186628,14.589646976807515],[121.09492272860876,14.589810319513987],[121.09322220772594,14.589953504650765]]]},"id":0},{"type":"Feature","properties":{"barangay":"Pinagbuhatan","shaking_leve":"high","hazard_value":4},"geometry":{"coordinates":[[[121.11067776940507,14.526433400992246],[121.11201542738365,14.525543705606111],[121.11281748518871,14.525613028877387],[121.11393463713364,14.525973509540592],[121.11449321310613,14.526375583433392],[121.11483695216589,14.527443155393598],[121.11530959337483,14.52809478769285],[121.11599707149452,14.528538451138743],[121.11638377793616,14.528427535360251],[121.11668454961426,14.528122516684377],[121.11649835762336,14.527512478070278],[121.11682777422135,14.527387697236605],[121.11735770527201,14.527900684655407],[121.11758686464651,14.528857333690027],[121.11725744804664,14.529994215565765],[121.11614036111172,14.531281926606951],[121.11541563257174,14.532176591920887],[121.11511026912558,14.532306653204998],[121.11480083463482,14.532338182598792],[121.1144466130383,14.532440655057243],[121.11422268220116,14.532657421709786],[121.11408017925964,14.53314219414392],[121.1139051090513,14.53346143262526],[121.11355496358817,14.534194499321416],[121.11314374469475,14.534738384662845],[121.112651099007,14.535542387305682],[121.11221716022209,14.536509625300411],[121.1122364255873,14.5371618564444],[121.11308349071754,14.538587448949002],[121.11426746151244,14.53998507986769],[121.11510490384251,14.540590717268387],[121.11503752327798,14.541848573613677],[121.11453699103294,14.54328345103879],[121.11373805004979,14.544615830551095],[121.11272735086084,14.545193503826397],[121.1115145006919,14.545454387701923],[121.11040754390768,14.545929569550935],[121.1089421868229,14.547300360974575],[121.1085707339438,14.547747446075292],[121.10810419019981,14.548243539543577],[121.1072369580159,14.548968676014042],[121.10627355887698,14.54981181142253],[121.10545670608707,14.55054916353302],[121.10472245696121,14.55097114032229],[121.10385971204471,14.551397556588228],[121.10321848373701,14.55183728331373],[121.1027831944262,14.552119756231605],[121.10240608760455,14.552405742508952],[121.10190348960691,14.552626136550359],[121.1016200439746,14.552855696200055],[121.10146964425138,14.553090854617622],[121.10125561387628,14.553354007788428],[121.10093167601087,14.553577967686067],[121.10039371441923,14.553555570827811],[121.099311993333,14.553197234845953],[121.0990574707248,14.553348407909112],[121.09850631602342,14.554173731568298],[121.09808457018585,14.554648590160667],[121.0982755240671,14.55529570409034],[121.09823110591003,14.555637115498882],[121.09814227000038,14.555834375057444],[121.09790973285709,14.556380631800124],[121.09776341760784,14.556964821936035],[121.0978391897579,14.55768304433559],[121.09791757443969,14.557852483526943],[121.09816840635557,14.55837344575653],[121.09815795502504,14.55849736378579],[121.09808218287361,14.558608637058654],[121.09759881340744,14.558917165410307],[121.09695605936378,14.559382488451092],[121.09629763175519,14.5599312648649],[121.09618266711266,14.560100702588045],[121.09621402126663,14.560295429278654],[121.09646746552897,14.560821443579897],[121.09678622947882,14.56142079454581],[121.09707363980743,14.561810245216364],[121.09734537441739,14.562053019547918],[121.09775297633234,14.562245215704579],[121.0981231371805,14.562354674096056],[121.09809822781591,14.562483256144503],[121.09439088361557,14.561430487733617],[121.09403662427582,14.562360416165362],[121.0932065576194,14.562471778567769],[121.09143137219019,14.562607008077947],[121.0903958434908,14.56255132691787],[121.08972193404003,14.562829733008755],[121.08825904429011,14.562662689654118],[121.08669753276081,14.56287745965733],[121.08458485391623,14.557493894853494],[121.08477265170063,14.557406410247935],[121.0849367869672,14.557072791574555],[121.08582722124572,14.556028244065558],[121.08669713912298,14.554884400306221],[121.08756705603304,14.554244956762886],[121.08817617935523,14.553580975165204],[121.08837092747285,14.553288127926095],[121.08849960033467,14.553224172730026],[121.0885656755886,14.553082798020256],[121.08936594739856,14.552471194526234],[121.09010458342283,14.552678150471934],[121.09140553454779,14.553302034009093],[121.09206718206843,14.553451464847441],[121.09243476402605,14.55341588608502],[121.09311846646574,14.552974708962822],[121.09343471921778,14.552041242176458],[121.09431137428277,14.54944800481482],[121.09458442650902,14.548146545121512],[121.09476646166388,14.546805029304053],[121.09486161651398,14.545667738643886],[121.09513053170667,14.545239250433283],[121.09613999890365,14.544630556219502],[121.09667369113401,14.543913736883738],[121.09675643436998,14.543485245512429],[121.0969136463047,14.543096799442154],[121.09693433256217,14.54261624657974],[121.09657026222669,14.541278702190695],[121.09653716426783,14.540914280680454],[121.09743906357289,14.540265528605957],[121.09789001541105,14.539748927476566],[121.09892430551571,14.53785070907098],[121.09956556559803,14.537370144754576],[121.1002771548279,14.537185928949256],[121.10172102108555,14.536461075802421],[121.10224230306096,14.535948470654063],[121.10328623233698,14.535227962866486],[121.10591167267211,14.533372867428028],[121.10659961494741,14.532462307306403],[121.10690849120368,14.53199342996622],[121.10709100879933,14.530437294178881],[121.10667683382775,14.52884717080346],[121.10624159917933,14.52788901350901],[121.10626967883434,14.527528854019138],[121.10693657063439,14.527114330107182],[121.107922775227,14.526851111364977],[121.10880238180278,14.526947505954766],[121.10895174895671,14.526706519402495],[121.10984795188193,14.526674387842235],[121.11067776940507,14.526433400992246]]],"type":"Polygon"},"id":1}]}