{"type":"FeatureCollection","features":[{"type":"Feature","properties":{"barangay":"Sta. Lucia","liquefaction_level":"high","hazard_level":"5"},"geometry":{"coordinates":[[[121.09416961840975,14.589771062943129],[121.09432228762341,14.588380645233741],[121.09456136400217,14.588064840668906],[121.09482210911108,14.587728063830426],[121.09495246530895,14.587496578458357],[121.09521165820121,14.586408263836134],[121.0952001292327,14.586016151468456],[121.09526957731754,14.58560186560176],[121.09545463837713,14.585467553997674],[121.09600974115705,14.585378031105392],[121.09669192649403,14.585232580240657],[121.09686435834584,14.584617852287536],[121.09717645981277,14.58453956420334],[121.09732669893697,14.584483649377603],[121.09754604087658,14.584226497346975],[121.09706039282912,14.584036487740335],[121.09673661919442,14.583790667724898],[121.0967825423021,14.583366268083267],[121.097151809514,14.582953278348043],[121.09759048945932,14.582819386867044],[121.09817350067442,14.582829166757008],[121.09845704129901,14.583076034203543],[121.09865388055141,14.583321609060661],[121.09880476233292,14.583656619620015],[121.0988513404518,14.583824183670401],[121.0992914477427,14.584226497346975],[121.09956907107124,14.584304751242087],[121.09981185463721,14.584315931067508],[121.10011244100332,14.58432711106731],[121.10030863850028,14.584226497346975],[121.10045864892766,14.584148251995657],[121.10041121913758,14.583779496091452],[121.1007223245166,14.58352259659415],[121.10125274823332,14.583254625747685],[121.10093863655072,14.582637633294567],[121.1006613976113,14.582440780454846],[121.10012236396369,14.582272083593423],[121.09952522610939,14.58210341824116],[121.09936481464865,14.581976939898269],[121.098674952269,14.581214821748688],[121.09841467266835,14.58083815539382],[121.09850079177897,14.580534883473561],[121.09863006766795,14.580189947702792],[121.09891081154814,14.579939196748384],[121.0993433462641,14.579949642832304],[121.09991645663689,14.579960089079023],[121.10033857749386,14.580106353628778],[121.10062038185072,14.580315358361162],[121.10076167900581,14.580534883473561],[121.10084879111054,14.580712646931659],[121.10139027468972,14.580859075754546],[121.10161769830017,14.58091137951125],[121.10178111260598,14.581193890290706],[121.10186840325377,14.58137182850139],[121.10194539759226,14.581675479099133],[121.10198965765704,14.581989800872023],[121.10229298409189,14.582157259735965],[121.10261832894355,14.58247135779493],[121.10285689870688,14.582649411973236],[121.10287919041457,14.582921913606626],[121.10287956646249,14.58309999529402],[121.10279416598439,14.583603226937399],[121.10271862894422,14.583749935967262],[121.10262133764621,14.583854747762402],[121.10250240146621,14.583980543518322],[121.10247016340116,14.584137821359818],[121.10251371047946,14.584263670159515],[121.10255740969978,14.584473470575148],[121.1024059671098,14.584641358099134],[121.10220039669042,14.58488276994106],[121.10201607785217,14.584851276464462],[121.10186431247797,14.58484077915007],[121.10157165792805,14.584851276464462],[121.10137680746033,14.585176774573526],[121.10129017084199,14.585313320712004],[121.10113839808446,14.585365845845061],[121.10067212590013,14.585386857047581],[121.10033452600226,14.585658526081104],[121.10020476034123,14.585868200334843],[121.09999902723706,14.585983549085938],[121.09970661797337,14.586161854315918],[121.09955501355586,14.58634020689125],[121.0994034173292,14.586634067335638],[121.09926254013351,14.586749547683809],[121.09890482075372,14.587064594988192],[121.09833003422068,14.587348263878383],[121.09801545622389,14.587453356814862],[121.09763552034838,14.5878107957179],[121.09740735369894,14.588126340834108],[121.09701860536416,14.588313069330383],[121.09647663451949,14.588470548720409],[121.09623810735195,14.588701585267884],[121.09614049006666,14.58886966174606],[121.0959777854867,14.589006254836718],[121.09576083124614,14.589111345333293],[121.09553304370411,14.589142875686036],[121.09528422886228,14.589240039531546],[121.09513609260546,14.58928270458135],[121.09503924959995,14.589527152769222],[121.09485727643329,14.589724659549884],[121.09483684242417,14.589814220509147],[121.09472330140869,14.589815932514469],[121.09447597084898,14.589842676754401],[121.09423029542234,14.58987900393845],[121.09416961840975,14.589771062943129]]],"type":"Polygon"}},{"type":"Feature","properties":{"barangay":"Sta. Lucia","liquefaction_level":"moderate","hazard_level":3},"geometry":{"coordinates":[[[121.09322220772594,14.589953504650765],[121.09360646773803,14.588566344136282],[121.09457605137857,14.585799676579413],[121.09569142865007,14.584081292149392],[121.09819312221782,14.580551082084568],[121.10055325167923,14.577242473074989],[121.10184897968168,14.5756117099058],[121.10344506990077,14.576630435275618],[121.1038039506825,14.576841622511338],[121.10431167589371,14.577020455426478],[121.10472634577047,14.577307630566992],[121.10498724717507,14.577574887799031],[121.10524466874676,14.577751942116436],[121.1057347437361,14.577722733961338],[121.10659488412733,14.578701691100946],[121.10692594398802,14.578824242817646],[121.10742309430412,14.578916067668686],[121.10806173335101,14.57908569116509],[121.10834768062278,14.579363090363557],[121.1084526545011,14.57951624813633],[121.1085943732449,14.57972608518196],[121.10882483818625,14.580250490019651],[121.10911666880236,14.581178155663679],[121.10890557258682,14.581589720415977],[121.10908693584656,14.582343529714677],[121.10902739198212,14.582667065473444],[121.10869240267778,14.582788624787],[121.10865860413077,14.583088729575167],[121.10843860141836,14.583296689419342],[121.10839185111098,14.583530330357505],[121.10837527052519,14.58341432996518],[121.10831623873554,14.583772383777031],[121.10817761180516,14.58389079302583],[121.10817790787905,14.58401038431738],[121.10826581479921,14.584172658546905],[121.10819470061557,14.584390808251896],[121.10824724975248,14.584918060260563],[121.10839178660768,14.585430728212046],[121.10824676493769,14.585731207908808],[121.1084200087617,14.586141274276542],[121.10853640046446,14.58673657475255],[121.10848657227785,14.586799008945007],[121.10842606151556,14.586952145256305],[121.10835387523292,14.587135310934542],[121.10839796781045,14.587282819865777],[121.10860630741928,14.58766101218167],[121.10765192111069,14.587886638769518],[121.10689730373417,14.588068750696124],[121.10613941482694,14.588253428357746],[121.10529187716509,14.588445716317068],[121.10430039701771,14.588691636139842],[121.10422043506247,14.588729294730655],[121.10275964196967,14.58906200557351],[121.10137904593097,14.589293137410593],[121.10008558807954,14.589413494464068],[121.09822585384842,14.589555962561946],[121.09664840186628,14.589646976807515],[121.09492272860876,14.589810319513987],[121.09322220772594,14.589953504650765]]],"type":"Polygon"},"id":1},{"type":"Feature","properties":{"barangay":"Pinagbuhatan","liquefaction_level":"high","hazard_level":5},"geometry":{"coordinates":[[[121.11067776940507,14.526433400992246],[121.11201542738365,14.525543705606111],[121.11281748518871,14.525613028877387],[121.11393463713364,14.525973509540592],[121.11449321310613,14.526375583433392],[121.11483695216589,14.527443155393598],[121.11530959337483,14.52809478769285],[121.11599707149452,14.528538451138743],[121.11638377793616,14.528427535360251],[121.11668454961426,14.528122516684377],[121.11649835762336,14.527512478070278],[121.11682777422135,14.527387697236605],[121.11735770527201,14.527900684655407],[121.11758686464651,14.528857333690027],[121.11725744804664,14.529994215565765],[121.11614036111172,14.531281926606951],[121.11541563257174,14.532176591920887],[121.11511026912558,14.532306653204998],[121.11480083463482,14.532338182598792],[121.1144466130383,14.532440655057243],[121.11422268220116,14.532657421709786],[121.11408017925964,14.53314219414392],[121.1139051090513,14.53346143262526],[121.11355496358817,14.534194499321416],[121.11314374469475,14.534738384662845],[121.112651099007,14.535542387305682],[121.11221716022209,14.536509625300411],[121.1122364255873,14.5371618564444],[121.11308349071754,14.538587448949002],[121.11426746151244,14.53998507986769],[121.11510490384251,14.540590717268387],[121.11503752327798,14.541848573613677],[121.11453699103294,14.54328345103879],[121.11373805004979,14.544615830551095],[121.11272735086084,14.545193503826397],[121.1115145006919,14.545454387701923],[121.11040754390768,14.545929569550935],[121.1089421868229,14.547300360974575],[121.1085707339438,14.547747446075292],[121.10810419019981,14.548243539543577],[121.1072369580159,14.548968676014042],[121.10627355887698,14.54981181142253],[121.10545670608707,14.55054916353302],[121.10472245696121,14.55097114032229],[121.10385971204471,14.551397556588228],[121.10321848373701,14.55183728331373],[121.1027831944262,14.552119756231605],[121.10240608760455,14.552405742508952],[121.10190348960691,14.552626136550359],[121.1016200439746,14.552855696200055],[121.10146964425138,14.553090854617622],[121.10125561387628,14.553354007788428],[121.10093167601087,14.553577967686067],[121.10039371441923,14.553555570827811],[121.099311993333,14.553197234845953],[121.0990574707248,14.553348407909112],[121.09850631602342,14.554173731568298],[121.09808457018585,14.554648590160667],[121.0982755240671,14.55529570409034],[121.09823110591003,14.555637115498882],[121.09814227000038,14.555834375057444],[121.09790973285709,14.556380631800124],[121.09776341760784,14.556964821936035],[121.0978391897579,14.55768304433559],[121.09791757443969,14.557852483526943],[121.09816840635557,14.55837344575653],[121.09815795502504,14.55849736378579],[121.09808218287361,14.558608637058654],[121.09759881340744,14.558917165410307],[121.09695605936378,14.559382488451092],[121.09629763175519,14.5599312648649],[121.09618266711266,14.560100702588045],[121.09621402126663,14.560295429278654],[121.09646746552897,14.560821443579897],[121.09678622947882,14.56142079454581],[121.09707363980743,14.561810245216364],[121.09734537441739,14.562053019547918],[121.09775297633234,14.562245215704579],[121.0981231371805,14.562354674096056],[121.09809822781591,14.562483256144503],[121.09439088361557,14.561430487733617],[121.09403662427582,14.562360416165362],[121.0932065576194,14.562471778567769],[121.09143137219019,14.562607008077947],[121.0903958434908,14.56255132691787],[121.08972193404003,14.562829733008755],[121.08825904429011,14.562662689654118],[121.08669753276081,14.56287745965733],[121.08458485391623,14.557493894853494],[121.08477265170063,14.557406410247935],[121.0849367869672,14.557072791574555],[121.08582722124572,14.556028244065558],[121.08669713912298,14.554884400306221],[121.08756705603304,14.554244956762886],[121.08817617935523,14.553580975165204],[121.08837092747285,14.553288127926095],[121.08849960033467,14.553224172730026],[121.0885656755886,14.553082798020256],[121.08936594739856,14.552471194526234],[121.09010458342283,14.552678150471934],[121.09140553454779,14.553302034009093],[121.09206718206843,14.553451464847441],[121.09243476402605,14.55341588608502],[121.09311846646574,14.552974708962822],[121.09343471921778,14.552041242176458],[121.09431137428277,14.54944800481482],[121.09458442650902,14.548146545121512],[121.09476646166388,14.546805029304053],[121.09486161651398,14.545667738643886],[121.09513053170667,14.545239250433283],[121.09613999890365,14.544630556219502],[121.09667369113401,14.543913736883738],[121.09675643436998,14.543485245512429],[121.0969136463047,14.543096799442154],[121.09693433256217,14.54261624657974],[121.09657026222669,14.541278702190695],[121.09653716426783,14.540914280680454],[121.09743906357289,14.540265528605957],[121.09789001541105,14.539748927476566],[121.09892430551571,14.53785070907098],[121.09956556559803,14.537370144754576],[121.1002771548279,14.537185928949256],[121.10172102108555,14.536461075802421],[121.10224230306096,14.535948470654063],[121.10328623233698,14.535227962866486],[121.10591167267211,14.533372867428028],[121.10659961494741,14.532462307306403],[121.10690849120368,14.53199342996622],[121.10709100879933,14.530437294178881],[121.10667683382775,14.52884717080346],[121.10624159917933,14.52788901350901],[121.10626967883434,14.527528854019138],[121.10693657063439,14.527114330107182],[121.107922775227,14.526851111364977],[121.10880238180278,14.526947505954766],[121.10895174895671,14.526706519402495],[121.10984795188193,14.526674387842235],[121.11067776940507,14.526433400992246]]],"type":"Polygon"},"id":2}]}